[{"OBJECT_NAME":"STARLINK-34560","OBJECT_ID":"2025-142E","EPOCH":"2026-03-09T22:00:01.999584","MEAN_MOTION":14.98327654,"ECCENTRICITY":0.00031957,"INCLINATION":70.0006,"RA_OF_ASC_NODE":314.0372,"ARG_OF_PERICENTER":276.5089,"MEAN_ANOMALY":320.4654,"EPHEMERIS_TYPE":0,"CLASSIFICATION_TYPE":"U","NORAD_CAT_ID":64700,"ELEMENT_SET_NO":999,"REV_AT_EPOCH":575,"BSTAR":-0.00073575436,"MEAN_MOTION_DOT":-8.86e-5,"MEAN_MOTION_DDOT":0},{"OBJECT_NAME":"KUIPER-00106","OBJECT_ID":"2025-171N","EPOCH":"2026-03-09T10:38:15.017568","MEAN_MOTION":14.97188469,"ECCENTRICITY":0.00079317,"INCLINATION":51.8933,"RA_OF_ASC_NODE":156.0933,"ARG_OF_PERICENTER":97.4823,"MEAN_ANOMALY":262.7049,"EPHEMERIS_TYPE":0,"CLASSIFICATION_TYPE":"U","NORAD_CAT_ID":65144,"ELEMENT_SET_NO":999,"REV_AT_EPOCH":3290,"BSTAR":0.00038673669,"MEAN_MOTION_DOT":4.265e-5,"MEAN_MOTION_DDOT":0}]
